     2.100          NAVIGATION                              RINEX VERSION / TYPE
fic2rin                                 04/23/2013 00:18:40 PGM / RUN BY / DATE
                                                            END OF HEADER
15 13  4 22  2  0  0.0 -.116189010441D-03 -.147792889038D-11  .000000000000D+00
     .890000000000D+02 -.213125000000D+02  .527379110314D-08  .188218665864D+01
    -.111013650894D-05  .538129685447D-02  .354833900928D-05  .515374003983D+04
     .936000000000D+05 -.111758708954D-07  .122842146171D+01  .223517417908D-07
     .941096821306D+00  .301625000000D+03  .168808153549D+00 -.864000274794D-08
    -.194293807403D-09  .100000000000D+01  .173700000000D+04  .000000000000D+00
     .340000000000D+01  .000000000000D+00 -.102445483208D-07  .890000000000D+02
     .864060000000D+05  .400000000000D+01
16 13  4 22  2  0  0.0 -.252460129559D-03  .113686837722D-12  .000000000000D+00
     .350000000000D+02  .496562500000D+02  .421981862953D-08 -.267535477641D+01
     .255741178989D-05  .713785574771D-02  .762566924095D-05  .515362290955D+04
     .936000000000D+05 -.968575477600D-07 -.288277879145D+01 -.596046447754D-07
     .984632267098D+00  .248687500000D+03  .722375444808D-01 -.787211361942D-08
     .473591155544D-09  .100000000000D+01  .173700000000D+04  .000000000000D+00
     .240000000000D+01  .000000000000D+00 -.102445483208D-07  .350000000000D+02
     .864060000000D+05  .400000000000D+01
17 13  4 22  2  0  0.0  .272900797427D-04 -.397903932026D-11  .000000000000D+00
     .870000000000D+02 -.513437500000D+02  .483412993234D-08  .256065749028D+01
    -.280328094959D-05  .830191466957D-02  .485591590405D-05  .515361112595D+04
     .936000000000D+05  .745058059692D-08 -.184569578221D+01 -.115483999252D-06
     .964784564933D+00  .286125000000D+03 -.219455580849D+01 -.822855703814D-08
    -.312513017422D-09  .100000000000D+01  .173700000000D+04  .000000000000D+00
     .340000000000D+01  .000000000000D+00 -.102445483208D-07  .870000000000D+02
     .864060000000D+05  .400000000000D+01
18 13  4 22  2  0  0.0  .250027514994D-03  .181898940355D-11  .000000000000D+00
     .400000000000D+02  .800312500000D+02  .514128558375D-08 -.223056051628D+01
     .406242907047D-05  .141356543172D-01  .710040330887D-05  .515359818649D+04
     .936000000000D+05  .122934579849D-06  .210382304570D+00 -.111758708954D-06
     .927963727334D+00  .225437500000D+03 -.211431605092D+01 -.822427114533D-08
     .368943939425D-09  .100000000000D+01  .173700000000D+04  .000000000000D+00
     .240000000000D+01  .000000000000D+00 -.111758708954D-07  .400000000000D+02
     .864060000000D+05  .400000000000D+01
20 13  4 22  2  0  0.0  .941776670516D-04  .193267624127D-11  .000000000000D+00
     .630000000000D+02  .835937500000D+02  .526414784432D-08 -.167981965882D+01
     .431947410107D-05  .546834338456D-02  .785477459431D-05  .515376035309D+04
     .936000000000D+05  .180676579475D-06  .156926760081D+00  .782310962677D-07
     .928701038046D+00  .211625000000D+03  .129644788386D+01 -.848963934184D-08
     .262153776900D-09  .100000000000D+01  .173700000000D+04  .000000000000D+00
     .240000000000D+01  .000000000000D+00 -.791624188423D-08  .630000000000D+02
     .864060000000D+05  .400000000000D+01
21 13  4 22  2  0  0.0 -.293277204037D-03 -.216004991671D-11  .000000000000D+00
     .660000000000D+02 -.171562500000D+02  .503128100162D-08 -.114603664491D+01
    -.821426510811D-06  .202640718780D-01  .104457139969D-04  .515370453262D+04
     .936000000000D+05  .327825546265D-06 -.837231064023D+00  .422820448875D-06
     .931591575454D+00  .160500000000D+03 -.214708548904D+01 -.832570394184D-08
    -.334656796942D-09  .100000000000D+01  .173700000000D+04  .000000000000D+00
     .240000000000D+01  .000000000000D+00 -.111758708954D-07  .660000000000D+02
     .864060000000D+05  .400000000000D+01
22 13  4 22  2  0  0.0  .165167730302D-03  .136424205266D-11  .000000000000D+00
     .740000000000D+02  .805312500000D+02  .523200364824D-08 -.280392749673D+01
     .410899519920D-05  .646637589671D-02  .721216201782D-05  .515365139008D+04
     .936000000000D+05  .745058059692D-08  .213057383404D+00 -.186264514923D-08
     .925705899069D+00  .222062500000D+03 -.204220736172D+01 -.836070539980D-08
     .310012913282D-09  .100000000000D+01  .173700000000D+04  .000000000000D+00
     .240000000000D+01  .000000000000D+00 -.172294676304D-07  .740000000000D+02
     .864060000000D+05  .400000000000D+01
23 13  4 22  2  0  0.0  .929241068661D-04 -.363797880709D-11  .000000000000D+00
     .920000000000D+02 -.241562500000D+02  .489698969356D-08  .141329885165D+01
    -.115856528282D-05  .840051565319D-02  .444240868092D-05  .515372006416D+04
     .936000000000D+05 -.689178705215D-07  .126909072183D+01  .128522515297D-06
     .955991625597D+00  .292156250000D+03 -.290564094749D+01 -.847463871700D-08
    -.326085011321D-09  .100000000000D+01  .173700000000D+04  .000000000000D+00
     .240000000000D+01  .000000000000D+00 -.200234353542D-07  .920000000000D+02
     .864060000000D+05  .400000000000D+01
24 13  4 22  2  0  0.0 -.492436811328D-05 -.682121026330D-12  .000000000000D+00
     .810000000000D+02 -.441875000000D+02  .443911347832D-08  .507014034187D+00
    -.229105353355D-05  .903358915821D-03  .105369836092D-04  .515368993950D+04
     .936000000000D+05  .111758708954D-07  .229606131569D+01  .130385160446D-07
     .959047210886D+00  .178468750000D+03  .371138722320D+00 -.799961893052D-08
    -.964325882329D-10  .100000000000D+01  .173700000000D+04  .000000000000D+00
     .340000000000D+01  .000000000000D+00  .279396772385D-08  .810000000000D+02
     .864060000000D+05  .400000000000D+01
25 13  4 22  2  0  0.0  .897850841284D-04  .386535248253D-11  .000000000000D+00
     .700000000000D+02  .454687500000D+02  .445018536808D-08 -.133416706288D+01
     .238418579102D-05  .249300757423D-02  .764243304729D-05  .515355356216D+04
     .936000000000D+05  .298023223877D-07 -.293897057791D+01  .279396772385D-07
     .972772861289D+00  .239093750000D+03  .592995544805D+00 -.806140721854D-08
     .473948313278D-09  .100000000000D+01  .173700000000D+04  .000000000000D+00
     .240000000000D+01  .000000000000D+00  .558793544769D-08  .700000000000D+02
     .864060000000D+05  .400000000000D+01
26 13  4 22  2  0  0.0 -.175382010639D-04  .151203494170D-10  .000000000000D+00
     .320000000000D+02 -.375625000000D+02  .442339853802D-08  .134771624586D+01
    -.224635004997D-05  .212784050964D-01  .504031777382D-05  .515365970612D+04
     .936000000000D+05 -.339001417160D-06  .134895766790D+01 -.229105353355D-06
     .979161445022D+00  .297343750000D+03  .123436171372D+01 -.841749347953D-08
    -.290726395636D-09  .100000000000D+01  .173700000000D+04  .000000000000D+00
     .240000000000D+01  .000000000000D+00 -.605359673500D-08  .320000000000D+02
     .864060000000D+05  .400000000000D+01
28 13  4 22  2  0  0.0  .252010300756D-03  .329691829393D-11  .000000000000D+00
     .760000000000D+02  .557812500000D+02  .420017495415D-08 -.292304372149D+01
     .279024243355D-05  .185763844056D-01  .756420195103D-05  .515364188576D+04
     .936000000000D+05  .368803739548D-06 -.287649319276D+01 -.745058059692D-07
     .983062754955D+00  .240812500000D+03 -.177136973639D+01 -.771925010918D-08
     .541093967307D-09  .100000000000D+01  .173700000000D+04  .000000000000D+00
     .340000000000D+01  .000000000000D+00 -.107102096081D-07  .760000000000D+02
     .864060000000D+05  .400000000000D+01
29 13  4 22  2  0  0.0  .428558792919D-03  .341060513165D-11  .000000000000D+00
     .440000000000D+02 -.465000000000D+02  .485163066132D-08 -.860213808409D+00
    -.232458114624D-05  .196755887009D-02  .509992241859D-05  .515365972710D+04
     .936000000000D+05  .745058059692D-08 -.183692296385D+01 -.106170773506D-06
     .965408508271D+00  .281375000000D+03 -.105006704940D+01 -.839427822681D-08
    -.217866217860D-09  .100000000000D+01  .173700000000D+04  .000000000000D+00
     .240000000000D+01  .000000000000D+00 -.931322574615D-08  .440000000000D+02
     .864060000000D+05  .400000000000D+01
30 13  4 22  2  0  0.0  .120932236314D-04 -.477484718431D-11  .000000000000D+00
     .750000000000D+02  .511250000000D+02  .456054710795D-08  .258217837135D+01
     .248476862907D-05  .109412349993D-01  .808946788311D-05  .515364785576D+04
     .936000000000D+05  .154599547386D-06 -.303281123262D+01 -.465661287308D-07
     .963814922349D+00  .224406250000D+03  .161432574975D+01 -.793390190743D-08
     .389301930274D-09  .100000000000D+01  .173700000000D+04  .000000000000D+00
     .240000000000D+02  .630000000000D+02 -.419095158577D-08  .750000000000D+02
     .864060000000D+05  .400000000000D+01
31 13  4 22  2  0  0.0  .311572104692D-03  .147792889038D-11  .000000000000D+00
     .530000000000D+02 -.235937500000D+02  .396552232278D-08 -.240804672035D+00
    -.141747295856D-05  .793079007417D-02  .104196369648D-04  .515358009529D+04
     .936000000000D+05 -.223517417908D-07  .232836185931D+01 -.128522515297D-06
     .980528909159D+00  .185656250000D+03 -.742450611717D+00 -.788032824730D-08
    -.317870383435D-10  .100000000000D+01  .173700000000D+04  .000000000000D+00
     .240000000000D+01  .000000000000D+00 -.130385160446D-07  .530000000000D+02
     .864060000000D+05  .400000000000D+01
32 13  4 22  2  0  0.0 -.551802571863D-03 -.238742359215D-11  .000000000000D+00
     .640000000000D+02  .714687500000D+02  .499592238593D-08  .310486529353D+00
     .357814133167D-05  .115757840686D-01  .668875873089D-05  .515371229744D+04
     .936000000000D+05  .208616256714D-06  .295902682929D+00 -.111758708954D-06
     .949869834234D+00  .244781250000D+03 -.371325814914D+00 -.856357099282D-08
     .277868717205D-09  .100000000000D+01  .173700000000D+04  .000000000000D+00
     .240000000000D+01  .000000000000D+00 -.279396772385D-08  .640000000000D+02
     .864060000000D+05  .400000000000D+01
